SatCatId,ObjectName,LaunchYear,OrbitalPeriod,LaunchMass,StatusCode,Inclination,Status,UcsData,OrbitClassEstimated,LaunchSiteCountry,Owner,UseType,Purpose,LaunchVehicleClass,TLE1,TLE2,MeanMotion,Eccentricity,OrbitClass
52577,STARLINK-3836,2022,95.44,260.0,+,53.22,Active,1,LEO,USA,USA,Commercial,Communications,Falcon,1 52577U 22051AT  25072.92021615 -.00002582  00000+0 -14429-3 0  9999,2 52577  53.2172 313.6773 0001082  92.0900 268.0216 15.08818301156911,15.08818301,0.0001082,LEO
52578,STARLINK-3833,2022,95.44,260.0,+,53.22,Active,1,LEO,USA,USA,Commercial,Communications,Falcon,1 52578U 22051AU  25072.92387812  .00000192  00000+0  30155-4 0  9992,2 52578  53.2184 313.6588 0001380  87.4108 272.7042 15.08845170156911,15.0884517,0.000138,LEO
52579,STARLINK-3893,2022,95.44,260.0,+,53.22,Active,1,LEO,USA,USA,Commercial,Communications,Falcon,1 52579U 22051AV  25072.91283521 -.00001839  00000+0 -97421-4 0  9994,2 52579  53.2177 313.7056 0001598  79.3668 280.7504 15.08850480156919,15.0885048,0.0001598,LEO
52580,STARLINK-3919,2022,95.44,260.0,+,53.22,Active,1,LEO,USA,USA,Commercial,Communications,Falcon,1 52580U 22051AW  25072.91747429 -.00000533  00000+0 -15420-4 0  9997,2 52580  53.2174 313.6988 0001321  80.5364 279.5777 15.08841709156914,15.08841709,0.0001321,LEO
52581,STARLINK-3915,2022,95.44,260.0,+,53.22,Active,1,LEO,USA,USA,Commercial,Communications,Falcon,1 52581U 22051AX  25072.93077595 -.00000867  00000+0 -36398-4 0  9997,2 52581  53.2169 298.6339 0001755 101.8651 258.2538 15.08837273157122,15.08837273,0.0001755,LEO
52583,STARLINK-3895,2022,95.44,260.0,+,53.22,Active,1,LEO,USA,USA,Commercial,Communications,Falcon,1 52583U 22051AZ  25072.86085877 -.00000038  00000+0  15716-4 0  9993,2 52583  53.2166 298.9479 0001484  99.7551 260.3608 15.08840159157110,15.08840159,0.0001484,LEO
52584,STARLINK-3922,2022,95.44,260.0,+,53.22,Active,1,LEO,USA,USA,Commercial,Communications,Falcon,1 52584U 22051BA  25073.00070594 -.00000087  00000+0  12653-4 0  9992,2 52584  53.2162 298.3168 0001356  91.9194 268.1954 15.08835410157205,15.0883541,0.0001356,LEO
52585,STARLINK-3906,2022,95.44,260.0,+,53.22,Active,1,LEO,USA,USA,Commercial,Communications,Falcon,1 52585U 22051BB  25072.84981181  .00001481  00000+0  11107-3 0  9997,2 52585  53.2165 298.9539 0001526  87.5819 272.5347 15.08848540157114,15.0884854,0.0001526,LEO
52586,STARLINK-3910,2022,95.44,260.0,+,53.22,Active,1,LEO,USA,USA,Commercial,Communications,Falcon,1 52586U 22051BC  25072.92342694 -.00000806  00000+0 -32554-4 0  9999,2 52586  53.2177 298.6642 0001417  98.5595 261.5558 15.08842757157129,15.08842757,0.0001417,LEO
52587,STARLINK-3867,2022,95.44,260.0,+,53.22,Active,1,LEO,USA,USA,Commercial,Communications,Falcon,1 52587U 22051BD  25072.90227005 -.00004488  00000+0 -26411-3 0  9990,2 52587  53.2178 298.6135 0001445  85.8813 274.2344 15.08832602157123,15.08832602,0.0001445,LEO
52588,STARLINK-3917,2022,95.44,260.0,+,53.22,Active,1,LEO,USA,USA,Commercial,Communications,Falcon,1 52588U 22051BE  25072.91235914  .00003614  00000+0  24488-3 0  9990,2 52588  53.2180 298.7120 0001427  88.2114 271.9042 15.08867792157120,15.08867792,0.0001427,LEO
52598,STARLINK-4019,2022,95.44,260.0,+,53.21,Active,1,LEO,USA,USA,Commercial,Communications,Falcon,1 52598U 22052A   25072.35438079 -.00001273  00000+0 -61857-4 0  9990,2 52598  53.2140 106.2168 0001250  90.2041 269.9094 15.08857523157033,15.08857523,0.000125,LEO
52599,STARLINK-4024,2022,95.44,260.0,+,53.22,Active,1,LEO,USA,USA,Commercial,Communications,Falcon,1 52599U 22052B   25072.34198742  .00000440  00000+0  45733-4 0  9998,2 52599  53.2158 101.3777 0001443  87.3400 272.7757 15.08842839157105,15.08842839,0.0001443,LEO
52600,STARLINK-4026,2022,95.44,260.0,+,53.22,Active,1,LEO,USA,USA,Commercial,Communications,Falcon,1 52600U 22052C   25072.45237253 -.00000880  00000+0 -37216-4 0  9991,2 52600  53.2146 100.7720 0001106  92.1735 267.9384 15.08833747157129,15.08833747,0.0001106,LEO
52601,STARLINK-4027,2022,95.44,260.0,+,53.22,Active,1,LEO,USA,USA,Commercial,Communications,Falcon,1 52601U 22052D   25072.39349387  .00001801  00000+0  13119-3 0  9994,2 52601  53.2158 101.0426 0000694  59.9266 300.1795 15.08844025157117,15.08844025,6.94e-05,LEO
52602,STARLINK-4012,2022,95.44,260.0,+,53.22,Active,1,LEO,USA,USA,Commercial,Communications,Falcon,1 52602U 22052E   25072.45605603 -.00001223  00000+0 -58755-4 0  9994,2 52602  53.2157 100.7616 0001286  83.6139 276.4999 15.08835722157121,15.08835722,0.0001286,LEO
52603,STARLINK-4016,2022,95.44,260.0,+,53.22,Active,1,LEO,USA,USA,Commercial,Communications,Falcon,1 52603U 22052F   25072.30981613  .00001177  00000+0  92020-4 0  9996,2 52603  53.2175 101.4282 0001389  94.1040 266.0111 15.08838186156678,15.08838186,0.0001389,LEO
52604,STARLINK-4013,2022,95.44,260.0,+,53.22,Active,1,LEO,USA,USA,Commercial,Communications,Falcon,1 52604U 22052G   25072.44868916  .00001206  00000+0  93824-4 0  9998,2 52604  53.2161 100.7946 0001397  88.8352 271.2800 15.08846936156325,15.08846936,0.0001397,LEO
52605,STARLINK-4000,2022,95.44,260.0,+,53.22,Active,1,LEO,USA,USA,Commercial,Communications,Falcon,1 52605U 22052H   25072.46204645  .00001023  00000+0  82397-4 0  9994,2 52605  53.2167 105.5143 0001440  99.5985 260.5170 15.08835657156255,15.08835657,0.000144,LEO
52606,STARLINK-3928,2022,95.44,260.0,+,53.22,Active,1,LEO,USA,USA,Commercial,Communications,Falcon,1 52606U 22052J   25072.37877635  .00001743  00000+0  12755-3 0  9999,2 52606  53.2160 101.1082 0001363  94.3085 265.8063 15.08839764156680,15.08839764,0.0001363,LEO
52607,STARLINK-3947,2022,95.44,260.0,+,53.22,Active,1,LEO,USA,USA,Commercial,Communications,Falcon,1 52607U 22052K   25072.41054817  .00001292  00000+0  99203-4 0  9997,2 52607  53.2160 105.9751 0001268  89.6278 270.4859 15.08846107156618,15.08846107,0.0001268,LEO
52608,STARLINK-3979,2022,95.44,260.0,+,53.22,Active,1,LEO,USA,USA,Commercial,Communications,Falcon,1 52608U 22052L   25072.37141304  .00001540  00000+0  11484-3 0  9991,2 52608  53.2155 101.1410 0001312  87.6357 272.4785 15.08844795156317,15.08844795,0.0001312,LEO
52609,STARLINK-3997,2022,95.44,260.0,+,53.22,Active,1,LEO,USA,USA,Commercial,Communications,Falcon,1 52609U 22052M   25073.22149503 -.00000267  00000+0  13045-5 0  9999,2 52609  53.2161  97.2740 0001453  92.9293 267.1866 15.08831928156810,15.08831928,0.0001453,LEO
52610,STARLINK-3998,2022,95.44,260.0,+,53.22,Active,1,LEO,USA,USA,Commercial,Communications,Falcon,1 52610U 22052N   25072.41326927  .00001762  00000+0  12876-3 0  9997,2 52610  53.2159 105.9516 0001485  78.4492 281.6666 15.08842302156617,15.08842302,0.0001485,LEO
52611,STARLINK-3980,2022,95.44,260.0,+,53.22,Active,1,LEO,USA,USA,Commercial,Communications,Falcon,1 52611U 22052P   25072.40591905 -.00000436  00000+0 -92892-5 0  9994,2 52611  53.2162 105.9884 0001044  90.7112 269.4000 15.08836995156243,15.08836995,0.0001044,LEO
52612,STARLINK-4002,2022,95.44,260.0,+,53.22,Active,1,LEO,USA,USA,Commercial,Communications,Falcon,1 52612U 22052Q   25072.36773897  .00000102  00000+0  24507-4 0  9997,2 52612  53.2164 101.1560 0001473  87.4180 272.6981 15.08837784156318,15.08837784,0.0001473,LEO
52614,STARLINK-3982,2022,95.44,260.0,+,53.22,Active,1,LEO,USA,USA,Commercial,Communications,Falcon,1 52614U 22052S   25073.21503394 -.00005220  00000+0 -31003-3 0  9993,2 52614  53.2145  87.3463 0001000  63.9402 296.1693 15.08854631156948,15.08854631,0.0001,LEO
52615,STARLINK-4011,2022,95.44,260.0,+,53.22,Active,1,LEO,USA,USA,Commercial,Communications,Falcon,1 52615U 22052T   25072.46849934  .00000714  00000+0  62891-4 0  9994,2 52615  53.2166 105.7046 0001448 103.5419 256.5734 15.08860101156629,15.08860101,0.0001448,LEO
52616,STARLINK-4015,2022,95.44,260.0,+,53.22,Active,1,LEO,USA,USA,Commercial,Communications,Falcon,1 52616U 22052U   25073.20770287  .00001210  00000+0  94119-4 0  9992,2 52616  53.2180  87.3887 0002052  89.7131 270.4096 15.08837643156948,15.08837643,0.0002052,LEO
52617,STARLINK-3996,2022,95.44,260.0,+,53.22,Active,1,LEO,USA,USA,Commercial,Communications,Falcon,1 52617U 22052V   25073.20034335 -.00000156  00000+0  82811-5 0  9996,2 52617  53.2167  87.4163 0001205  80.0887 280.0241 15.08830432156941,15.08830432,0.0001205,LEO
52618,STARLINK-3983,2022,95.44,260.0,+,53.22,Active,1,LEO,USA,USA,Commercial,Communications,Falcon,1 52618U 22052W   25073.20401683  .00000136  00000+0  26639-4 0  9993,2 52618  53.2170  87.4029 0001468  96.4718 263.6441 15.08842082156945,15.08842082,0.0001468,LEO
52619,STARLINK-3741,2022,95.44,260.0,+,53.22,Active,1,LEO,USA,USA,Commercial,Communications,Falcon,1 52619U 22052X   25073.19665798 -.00001417  00000+0 -70919-4 0  9996,2 52619  53.2166  87.4204 0001708 107.1515 252.9665 15.08847985156944,15.08847985,0.0001708,LEO
52620,STARLINK-3975,2022,95.44,260.0,+,53.22,Active,1,LEO,USA,USA,Commercial,Communications,Falcon,1 52620U 22052Y   25072.46478961  .00002006  00000+0  14408-3 0  9994,2 52620  53.2162 105.7238 0001444  92.9504 267.1653 15.08849873156245,15.08849873,0.0001444,LEO
52621,STARLINK-3984,2022,95.44,260.0,+,53.22,Active,1,LEO,USA,USA,Commercial,Communications,Falcon,1 52621U 22052Z   25073.18931060  .00000295  00000+0  36626-4 0  9994,2 52621  53.2156  87.4681 0001276  95.1172 264.9966 15.08836007156940,15.08836007,0.0001276,LEO
52622,STARLINK-4008,2022,95.44,260.0,+,53.22,Active,1,LEO,USA,USA,Commercial,Communications,Falcon,1 52622U 22052AA  25073.22287956  .00000673  00000+0  60355-4 0  9994,2 52622  53.2160 102.3155 0001413  87.6701 272.4453 15.08836754156748,15.08836754,0.0001413,LEO
52623,STARLINK-3986,2022,95.44,260.0,+,53.22,Active,1,LEO,USA,USA,Commercial,Communications,Falcon,1 52623U 22052AB  25072.45697262  .00000280  00000+0  35673-4 0  9993,2 52623  53.2171  90.7548 0001469  93.3639 266.7521 15.08843437156458,15.08843437,0.0001469,LEO
